GLOBALSTAR M045 [-]     
1 25676U 99019A   24071.57169606 -.00000120  00000+0 -23248-3 0  9994
2 25676  51.9961 183.7873 0001008  87.8358 285.4810 12.27032671136609
GLOBALSTAR M019 [-]     
1 25677U 99019B   24071.35645241 -.00000031  00000+0  61872-3 0  9990
2 25677  51.9860 282.2093 0001860  92.2278  79.1368 12.13850898128931
GLOBALSTAR M044 [-]     
1 25678U 99019C   24071.53034666 -.00000073  00000+0  15422-3 0  9990
2 25678  51.9955 175.2031 0006149 221.7841 151.0514 11.90229585116230
GLOBALSTAR M042 [-]     
1 25679U 99019D   24071.31924676 -.00000046  00000+0  43620-3 0  9997
2 25679  52.0001 277.6153 0003870  69.4709 101.5533 12.22057337128666
GLOBALSTAR M025 [-]     
1 25770U 99031A   24071.52460888 -.00000069  00000+0 -48559-4 0  9999
2 25770  51.9801 151.0560 0001862 108.0670 264.9756 11.22549520429751
GLOBALSTAR M049 [-]     
1 25771U 99031B   24071.54576609 -.00000124  00000+0 -20296-2 0  9999
2 25771  51.9857 162.5198 0002398 318.6146  41.4468 11.12102534 65954
GLOBALSTAR M047 [-]     
1 25772U 99031C   24071.76888421 -.00000069  00000+0  16194-4 0  9993
2 25772  51.9812 203.1606 0016703 185.8901 174.1710 11.31919146 93513
GLOBALSTAR M052 [-]     
1 25773U 99031D   24071.33015755 -.00000010  00000+0  18791-2 0  9998
2 25773  51.9852 278.1955 0003404 115.7517  55.7491 11.15049370426870
